{
  "norad_id": 67620,
  "name": "STARLINK-36607",
  "history": [
    {
      "epoch": "2026-03-28T13:27:14.649408Z",
      "apogee_km": 483.62765527737974,
      "perigee_km": 482.31032292747204,
      "latitude_deg": 2.2100742927565582e-05,
      "longitude_deg": 5.061109584605288,
      "height_km": 482.17764447051826,
      "semi_major_axis_km": 6861.105989102425,
      "eccentricity": 9.6e-05,
      "inclination_deg": 42.9987,
      "raan_deg": 32.8514,
      "arg_perigee_deg": 30.7324,
      "mean_anomaly_deg": 329.3584,
      "mean_motion_rev_day": 15.27606753
    },
    {
      "epoch": "2026-03-30T04:41:08.043936Z",
      "apogee_km": 483.80022847812506,
      "perigee_km": 482.19883921112705,
      "latitude_deg": 1.2252357418556344e-05,
      "longitude_deg": 125.74414205086644,
      "height_km": 482.99053223264735,
      "semi_major_axis_km": 6861.136533844626,
      "eccentricity": 0.0001167,
      "inclination_deg": 43.0014,
      "raan_deg": 23.6181,
      "arg_perigee_deg": 254.468,
      "mean_anomaly_deg": 105.6043,
      "mean_motion_rev_day": 15.27596552
    },
    {
      "epoch": "2026-03-30T04:41:08.044800Z",
      "apogee_km": 483.80022847812506,
      "perigee_km": 482.19883921112705,
      "latitude_deg": 1.2242574088612876e-05,
      "longitude_deg": 125.74413843059116,
      "height_km": 482.9905322337239,
      "semi_major_axis_km": 6861.136533844626,
      "eccentricity": 0.0001167,
      "inclination_deg": 43.0014,
      "raan_deg": 23.6181,
      "arg_perigee_deg": 254.468,
      "mean_anomaly_deg": 105.6043,
      "mean_motion_rev_day": 15.27596552
    },
    {
      "epoch": "2026-03-30T12:31:55.074144Z",
      "apogee_km": 483.66896727436597,
      "perigee_km": 482.33077113939635,
      "latitude_deg": -2.8107946396238884e-05,
      "longitude_deg": 5.87720010768558,
      "height_km": 482.71527597543735,
      "semi_major_axis_km": 6861.136869206881,
      "eccentricity": 9.752e-05,
      "inclination_deg": 43.006,
      "raan_deg": 21.7694,
      "arg_perigee_deg": 275.2829,
      "mean_anomaly_deg": 84.7911,
      "mean_motion_rev_day": 15.2759644
    },
    {
      "epoch": "2026-03-30T20:22:42.190752Z",
      "apogee_km": 483.9577702357383,
      "perigee_km": 482.13406781586036,
      "latitude_deg": 2.4843097733470733e-05,
      "longitude_deg": -113.98640332319634,
      "height_km": 482.88175269937614,
      "semi_major_axis_km": 6861.182919025799,
      "eccentricity": 0.0001329,
      "inclination_deg": 43.0001,
      "raan_deg": 19.9243,
      "arg_perigee_deg": 266.278,
      "mean_anomaly_deg": 93.792,
      "mean_motion_rev_day": 15.27581061
    },
    {
      "epoch": "2026-03-31T12:04:17.354496Z",
      "apogee_km": 483.73252756318925,
      "perigee_km": 482.46512008181253,
      "latitude_deg": 4.506543487256516e-05,
      "longitude_deg": 6.279510772468681,
      "height_km": 482.8651278359645,
      "semi_major_axis_km": 6861.235823822501,
      "eccentricity": 9.236e-05,
      "inclination_deg": 42.9954,
      "raan_deg": 16.2312,
      "arg_perigee_deg": 89.314,
      "mean_anomaly_deg": 270.7818,
      "mean_motion_rev_day": 15.27563393
    },
    {
      "epoch": "2026-04-01T11:36:37.186272Z",
      "apogee_km": 483.79943848889343,
      "perigee_km": 482.1349346132356,
      "latitude_deg": -4.4888468925607675e-06,
      "longitude_deg": 6.69132091587046,
      "height_km": 482.8048976178209,
      "semi_major_axis_km": 6861.104186551064,
      "eccentricity": 0.0001213,
      "inclination_deg": 43.0049,
      "raan_deg": 10.6924,
      "arg_perigee_deg": 265.822,
      "mean_anomaly_deg": 94.2493,
      "mean_motion_rev_day": 15.27607355
    },
    {
      "epoch": "2026-04-02T11:08:58.239744Z",
      "apogee_km": 483.9269252051063,
      "perigee_km": 482.1928263067266,
      "latitude_deg": 7.841033828643442e-06,
      "longitude_deg": 7.098292390538356,
      "height_km": 482.80668762328173,
      "semi_major_axis_km": 6861.196875755916,
      "eccentricity": 0.00012637,
      "inclination_deg": 43.0013,
      "raan_deg": 5.1538,
      "arg_perigee_deg": 271.9778,
      "mean_anomaly_deg": 88.0929,
      "mean_motion_rev_day": 15.275764
    },
    {
      "epoch": "2026-04-03T18:32:05.605440Z",
      "apogee_km": 484.2988015969604,
      "perigee_km": 481.9495057779368,
      "latitude_deg": 1.5928685590801274e-05,
      "longitude_deg": -112.35584079670734,
      "height_km": 482.5802974015895,
      "semi_major_axis_km": 6861.261153687448,
      "eccentricity": 0.0001712,
      "inclination_deg": 42.9984,
      "raan_deg": 357.7693,
      "arg_perigee_deg": 285.8402,
      "mean_anomaly_deg": 74.2261,
      "mean_motion_rev_day": 15.27554934
    }
  ]
}